[{"OBJECT_NAME":"STARLINK-4164","OBJECT_ID":"2022-086AS","EPOCH":"2026-03-09T19:31:35.370912","MEAN_MOTION":15.08824477,"ECCENTRICITY":0.00012812,"INCLINATION":53.2165,"RA_OF_ASC_NODE":183.5658,"ARG_OF_PERICENTER":87.221,"MEAN_ANOMALY":272.8929,"EPHEMERIS_TYPE":0,"CLASSIFICATION_TYPE":"U","NORAD_CAT_ID":53282,"ELEMENT_SET_NO":999,"REV_AT_EPOCH":20121,"BSTAR":-8.1993592e-5,"MEAN_MOTION_DOT":-1.592e-5,"MEAN_MOTION_DDOT":0},{"OBJECT_NAME":"COSMOS 2251 DEB","OBJECT_ID":"1993-036N","EPOCH":"2026-03-09T20:39:34.848000","MEAN_MOTION":15.17003756,"ECCENTRICITY":0.00564486,"INCLINATION":74.0035,"RA_OF_ASC_NODE":352.1163,"ARG_OF_PERICENTER":60.1769,"MEAN_ANOMALY":300.5022,"EPHEMERIS_TYPE":0,"CLASSIFICATION_TYPE":"U","NORAD_CAT_ID":33765,"ELEMENT_SET_NO":999,"REV_AT_EPOCH":90936,"BSTAR":0.0026022202,"MEAN_MOTION_DOT":0.00053945,"MEAN_MOTION_DDOT":0}]
